NORAD_CAT_ID,OBJECT_NAME,OBJECT_TYPE,EPOCH,MEAN_MOTION,ECCENTRICITY,INCLINATION,RA_OF_ASC_NODE,ARG_OF_PERICENTER,MEAN_ANOMALY,BSTAR,MEAN_MOTION_DOT,MEAN_MOTION_DDOT,TLE_LINE0,TLE_LINE1,TLE_LINE2,SEMIMAJOR_AXIS,PERIOD,APOGEE,PERIGEE,DECAYED
52290.0,STARLINK-3772,PAYLOAD,2023-04-26 17:02:48,15.08832925,0.000129,53.2166,123.7494,75.7651,284.3484,7.6667e-05,9.32e-06,0.0,0 STARLINK-3772,1 52290U 22041AF  23116.71028219  .00000932  00000-0  76667-4 0  9990,2 52290  53.2166 123.7494 0001290  75.7651 284.3484 15.08832925 56294,6917.902,95.438,540.659,538.875,0.0
52290.0,STARLINK-3772,PAYLOAD,2023-04-27 12:07:25,15.08841645,0.0001286,53.2166,120.1807,73.8065,286.3069,0.00011854,1.599e-05,0.0,0 STARLINK-3772,1 52290U 22041AF  23117.50515680  .00001599  00000-0  11854-3 0  9997,2 52290  53.2166 120.1807 0001286  73.8065 286.3069 15.08841645 56410,6917.875,95.437,540.63,538.851,0.0
52290.0,STARLINK-3772,PAYLOAD,2023-04-28 05:36:40,15.08834216,0.0001314,53.2169,116.9093,80.8374,279.2767,1.1064e-05,-1.12e-06,0.0,0 STARLINK-3772,1 52290U 22041AF  23118.23380668 -.00000112  00000-0  11064-4 0  9999,2 52290  53.2169 116.9093 0001314  80.8374 279.2767 15.08834216 57734,6917.898,95.438,540.672,538.854,0.0
52290.0,STARLINK-3772,PAYLOAD,2023-04-28 10:22:49,15.08839085,0.0001242,53.2165,116.0178,80.4455,279.6678,4.2633e-05,3.91e-06,0.0,0 STARLINK-3772,1 52290U 22041AF  23118.43252266  .00000391  00000-0  42633-4 0  9997,2 52290  53.2165 116.0178 0001242  80.4455 279.6678 15.08839085 56554,6917.883,95.438,540.607,538.889,0.0
52290.0,STARLINK-3772,PAYLOAD,2023-04-29 11:49:00,15.08842958,0.0001254,53.2163,111.2603,86.2697,273.8439,-6.9229e-06,-3.98e-06,0.0,0 STARLINK-3772,1 52290U 22041AF  23119.49236244 -.00000398  00000-0 -69229-5 0  9992,2 52290  53.2163 111.2603 0001254  86.2697 273.8439 15.08842958 57923,6917.871,95.437,540.604,538.869,0.0
52290.0,STARLINK-3772,PAYLOAD,2023-04-30 11:39:46,15.08844078,0.0001301,53.2168,106.7988,82.7138,277.4002,4.0485e-05,3.57e-06,0.0,0 STARLINK-3772,1 52290U 22041AF  23120.48596010  .00000357  00000-0  40485-4 0  9998,2 52290  53.2168 106.7988 0001301  82.7138 277.4002 15.08844078 56860,6917.868,95.437,540.633,538.833,0.0
52290.0,STARLINK-3772,PAYLOAD,2023-05-01 05:09:02,15.08829536,0.0001444,53.2176,103.5262,90.2413,269.8745,-3.1189e-05,-7.84e-06,0.0,0 STARLINK-3772,1 52290U 22041AF  23121.21461413 -.00000784  00000-0 -31189-4 0  9995,2 52290  53.2176 103.5262 0001444  90.2413 269.8745 15.08829536 58185,6917.912,95.438,540.776,538.778,0.0
52290.0,STARLINK-3772,PAYLOAD,2023-05-01 09:55:11,15.08833108,0.000146,53.2178,102.6345,88.6461,271.4699,-1.8807e-06,-3.18e-06,0.0,0 STARLINK-3772,1 52290U 22041AF  23121.41333202 -.00000318  00000-0 -18807-5 0  9997,2 52290  53.2178 102.6345 0001460  88.6461 271.4699 15.08833108 57008,6917.901,95.438,540.776,538.756,0.0
52290.0,STARLINK-3772,PAYLOAD,2023-05-02 04:59:48,15.08846523,0.0001357,53.2174,99.0652,90.7306,269.3842,6.5543e-05,7.56e-06,0.0,0 STARLINK-3772,1 52290U 22041AF  23122.20820049  .00000756  00000-0  65543-4 0  9997,2 52290  53.2174  99.0652 0001357  90.7306 269.3842 15.08846523 58339,6917.86,95.437,540.664,538.787,0.0
52290.0,STARLINK-3772,PAYLOAD,2023-05-02 09:45:57,15.08849478,0.0001356,53.2175,98.173,98.8497,261.2649,8.4591e-05,1.059e-05,0.0,0 STARLINK-3772,1 52290U 22041AF  23122.40691666  .00001059  00000-0  84591-4 0  9991,2 52290  53.2175  98.1730 0001356  98.8497 261.2649 15.08849478 57153,6917.851,95.437,540.654,538.778,0.0
52290.0,STARLINK-3772,PAYLOAD,2023-05-03 04:50:35,15.0884045,0.0001266,53.2167,94.6082,79.1415,280.9719,5.4671e-05,5.82e-06,0.0,0 STARLINK-3772,1 52290U 22041AF  23123.20180468  .00000582  00000-0  54671-4 0  9999,2 52290  53.2167  94.6082 0001266  79.1415 280.9719 15.08840450 58481,6917.879,95.438,540.62,538.868,0.0
52290.0,STARLINK-3772,PAYLOAD,2023-05-03 08:01:22,15.0884043,0.0001189,53.2165,94.0121,87.4576,272.6552,6.4922e-05,7.46e-06,0.0,0 STARLINK-3772,1 52290U 22041AF  23123.33428373  .00000746  00000-0  64922-4 0  9995,2 52290  53.2165  94.0121 0001189  87.4576 272.6552 15.08840430 57290,6917.879,95.438,540.567,538.922,0.0
52290.0,STARLINK-3772,PAYLOAD,2023-05-04 07:52:09,15.08844874,0.0001285,53.2165,89.5516,100.4419,259.6718,-6.0675e-05,-1.254e-05,0.0,0 STARLINK-3772,1 52290U 22041AF  23124.32788531 -.00001254  00000-0 -60675-4 0  9998,2 52290  53.2165  89.5516 0001285 100.4419 259.6718 15.08844874 58652,6917.865,95.437,540.619,538.842,0.0
52290.0,STARLINK-3772,PAYLOAD,2023-05-05 06:07:33,15.08838126,0.0001282,53.2177,85.3894,93.5673,266.5465,3.9626e-06,-2.25e-06,0.0,0 STARLINK-3772,1 52290U 22041AF  23125.25524881 -.00000225  00000-0  39626-5 0  9996,2 52290  53.2177  85.3894 0001282  93.5673 266.5465 15.08838126 58793,6917.886,95.438,540.638,538.864,0.0
52290.0,STARLINK-3772,PAYLOAD,2023-05-05 07:42:56,15.08839438,0.000128,53.2177,85.0917,92.543,267.5709,1.5802e-05,-3.6e-07,0.0,0 STARLINK-3772,1 52290U 22041AF  23125.32148768 -.00000036  00000-0  15802-4 0  9999,2 52290  53.2177  85.0917 0001280  92.5430 267.5709 15.08839438 57590,6917.882,95.438,540.633,538.862,0.0
52290.0,STARLINK-3772,PAYLOAD,2023-05-06 04:22:58,15.0883455,0.0001189,53.2173,81.2251,96.2135,263.8993,-1.736e-05,-5.64e-06,0.0,0 STARLINK-3772,1 52290U 22041AF  23126.18261590 -.00000564  00000-0 -17360-4 0  9991,2 52290  53.2173  81.2251 0001189  96.2135 263.8993 15.08834550 58939,6917.897,95.438,540.585,538.94,0.0
52290.0,STARLINK-3772,PAYLOAD,2023-05-06 07:33:44,15.08835125,0.0001267,53.2175,80.6301,100.6307,259.4828,1.3596e-05,-7.2e-07,0.0,0 STARLINK-3772,1 52290U 22041AF  23126.31509487 -.00000072  00000-0  13596-4 0  9996,2 52290  53.2175  80.6301 0001267 100.6307 259.4828 15.08835125 57743,6917.895,95.438,540.637,538.884,0.0
52290.0,STARLINK-3772,PAYLOAD,2023-05-07 02:38:20,15.08849017,0.0001125,53.2172,77.0614,103.0871,257.0247,0.00011346,1.519e-05,0.0,0 STARLINK-3772,1 52290U 22041AF  23127.10996232  .00001519  00000-0  11346-3 0  9998,2 52290  53.2172  77.0614 0001125 103.0871 257.0247 15.08849017 59075,6917.853,95.437,540.496,538.94,0.0
52290.0,STARLINK-3772,PAYLOAD,2023-05-07 05:49:06,15.08851959,0.000114,53.2174,76.4665,95.5394,264.5728,0.00013786,1.908e-05,0.0,0 STARLINK-3772,1 52290U 22041AF  23127.24243951  .00001908  00000-0  13786-3 0  9998,2 52290  53.2174  76.4665 0001140  95.5394 264.5728 15.08851959 57880,6917.844,95.437,540.497,538.92,0.0
52290.0,STARLINK-3772,PAYLOAD,2023-05-08 04:04:31,15.08840313,0.0001206,53.2174,72.3049,89.7474,270.3657,4.6976e-05,4.6e-06,0.0,0 STARLINK-3772,1 52290U 22041AF  23128.16981236  .00000460  00000-0  46976-4 0  9995,2 52290  53.2174  72.3049 0001206  89.7474 270.3657 15.08840313 59237,6917.879,95.438,540.579,538.91,0.0
52290.0,STARLINK-3772,PAYLOAD,2023-05-08 13:36:51,15.08834332,0.0001172,53.2164,70.5198,101.3666,258.7458,-7.3907e-06,-4.05e-06,0.0,0 STARLINK-3772,1 52290U 22041AF  23128.56725751 -.00000405  00000-0 -73907-5 0  9993,2 52290  53.2164  70.5198 0001172 101.3666 258.7458 15.08834332 59296,6917.898,95.438,540.573,538.952,0.0
52290.0,STARLINK-3772,PAYLOAD,2023-05-09 05:30:41,15.08850335,0.0001399,53.2177,67.5484,80.5906,279.5244,-2.2195e-05,-6.41e-06,0.0,0 STARLINK-3772,1 52290U 22041AF  23129.22964817 -.00000641  00000-0 -22195-4 0  9999,2 52290  53.2177  67.5484 0001399  80.5906 279.5244 15.08850335 58182,6917.849,95.437,540.682,538.746,0.0
52290.0,STARLINK-3772,PAYLOAD,2023-05-10 02:10:42,15.0884252,0.0001468,53.2179,63.6806,99.5803,260.5355,6.2375e-05,7.05e-06,0.0,0 STARLINK-3772,1 52290U 22041AF  23130.09077068  .00000705  00000-0  62375-4 0  9992,2 52290  53.2179  63.6806 0001468  99.5803 260.5355 15.08842520 58317,6917.873,95.437,540.753,538.722,0.0
52290.0,STARLINK-3772,PAYLOAD,2023-05-11 02:01:29,15.08841318,0.0001194,53.2177,59.222,94.2933,265.8196,0.00010259,1.345e-05,0.0,0 STARLINK-3772,1 52290U 22041AF  23131.08437018  .00001345  00000-0  10259-3 0  9991,2 52290  53.2177  59.2220 0001194  94.2933 265.8196 15.08841318 59673,6917.876,95.437,540.567,538.915,0.0
52290.0,STARLINK-3772,PAYLOAD,2023-05-12 01:52:17,15.08834695,0.0001234,53.2183,54.7634,94.7023,265.411,-7.7041e-05,-1.514e-05,0.0,0 STARLINK-3772,1 52290U 22041AF  23132.07798439 -.00001514  00000-0 -77041-4 0  9991,2 52290  53.2183  54.7634 0001234  94.7023 265.4110 15.08834695 59828,6917.897,95.438,540.615,538.908,0.0
52290.0,STARLINK-3772,PAYLOAD,2023-05-13 01:43:04,15.0884543,0.0001179,53.2188,50.3067,110.0823,250.0296,4.4019e-05,4.13e-06,0.0,0 STARLINK-3772,1 52290U 22041AF  23133.07157516  .00000413  00000-0  44019-4 0  9991,2 52290  53.2188  50.3067 0001179 110.0823 250.0296 15.08845430 59973,6917.864,95.437,540.544,538.913,0.0
52290.0,STARLINK-3772,PAYLOAD,2023-05-14 01:33:52,15.08832597,0.0001317,53.218,45.8476,122.4683,237.6437,0.00011821,1.594e-05,0.0,0 STARLINK-3772,1 52290U 22041AF  23134.06518620  .00001594  00000-0  11821-3 0  9993,2 52290  53.2180  45.8476 0001317 122.4683 237.6437 15.08832597 60120,6917.903,95.438,540.679,538.857,0.0
52290.0,STARLINK-3772,PAYLOAD,2023-05-14 23:49:15,15.08850333,0.0001241,53.2183,41.6778,87.38,272.7334,-7.1902e-06,-4.02e-06,0.0,0 STARLINK-3772,1 52290U 22041AF  23134.99253986 -.00000402  00000-0 -71902-5 0  9993,2 52290  53.2183  41.6778 0001241  87.3800 272.7334 15.08850333 60267,6917.849,95.437,540.572,538.855,0.0
52290.0,STARLINK-3772,PAYLOAD,2023-05-15 10:56:58,15.08834451,0.0001313,53.2174,39.6025,91.3424,268.7719,5.243e-05,5.47e-06,0.0,0 STARLINK-3772,1 52290U 22041AF  23135.45622730  .00000547  00000-0  52430-4 0  9994,2 52290  53.2174  39.6025 0001313  91.3424 268.7719 15.08834451 60339,6917.897,95.438,540.671,538.854,0.0
52290.0,STARLINK-3772,PAYLOAD,2023-05-16 02:50:49,15.08836266,0.00015,53.2196,36.6178,93.7786,266.3378,2.6189e-05,1.29e-06,0.0,0 STARLINK-3772,1 52290U 22041AF  23136.11862908  .00000129  00000-0  26189-4 0  9999,2 52290  53.2196  36.6178 0001500  93.7786 266.3378 15.08836266 59221,6917.892,95.438,540.794,538.719,0.0
